[{"OBJECT_NAME":"STARLINK-34314","OBJECT_ID":"2025-112A","EPOCH":"2026-03-09T17:38:53.576448","MEAN_MOTION":15.05633982,"ECCENTRICITY":0.00014743,"INCLINATION":97.6026,"RA_OF_ASC_NODE":121.535,"ARG_OF_PERICENTER":105.5919,"MEAN_ANOMALY":254.547,"EPHEMERIS_TYPE":0,"CLASSIFICATION_TYPE":"U","NORAD_CAT_ID":64146,"ELEMENT_SET_NO":999,"REV_AT_EPOCH":4331,"BSTAR":0.0006457984,"MEAN_MOTION_DOT":9.266e-5,"MEAN_MOTION_DDOT":0},{"OBJECT_NAME":"SL-19 R\/B","OBJECT_ID":"2009-059D","EPOCH":"2026-03-09T23:12:06.356736","MEAN_MOTION":14.95113684,"ECCENTRICITY":0.01234897,"INCLINATION":98.3546,"RA_OF_ASC_NODE":329.2242,"ARG_OF_PERICENTER":331.1085,"MEAN_ANOMALY":28.3333,"EPHEMERIS_TYPE":0,"CLASSIFICATION_TYPE":"U","NORAD_CAT_ID":36039,"ELEMENT_SET_NO":999,"REV_AT_EPOCH":88779,"BSTAR":0.00015970397,"MEAN_MOTION_DOT":1.961e-5,"MEAN_MOTION_DDOT":0}]
